GOES 14                 
1 35491U 09033A   21274.64109946 -.00000097  00000-0  00000-0 0  9999
2 35491   0.3536 281.0185 0015625 293.0852 283.0748  1.00272005 44876
FM-5                    
1 35493U 09034A   21274.55522014 -.00000203  00000-0  00000-0 0  9996
2 35493   0.0347 306.4650 0000816  68.4580 109.3353  1.00272818 29419
TERRESTAR-1             
1 35496U 09035A   21274.63554720 -.00000056  00000-0  00000-0 0  9994
2 35496   2.8794  32.3634 0002702 157.6190 298.4068  1.00271919 44892
COSMOS 2451             
1 35498U 09036A   21275.15430271 -.00000001  00000-0 -79618-4 0  9995
2 35498  82.4837  78.9675 0006942 352.3991   7.6982 12.40825362554502
COSMOS 2453             
1 35500U 09036C   21274.73445434  .00000004  00000-0 -40429-4 0  9999
2 35500  82.4844  76.0282 0006483 313.6112  46.4424 12.41468752554747
DEIMOS-1                
1 35681U 09041A   21275.15056413  .00000046  00000-0  14693-4 0  9996
2 35681  97.7428 134.0328 0001646  30.7503 329.3789 14.71916293653770
DUBAISAT-1              
1 35682U 09041B   21275.01689636 -.00000070  00000-0 -41116-5 0  9991
2 35682  97.7724  75.3642 0011207 170.3746 189.7639 14.68921515652343
UK-DMC 2                
1 35683U 09041C   21275.12587372  .00000063  00000-0  17570-4 0  9994
2 35683  97.6869  97.4743 0001680  78.1592 281.9783 14.71232635653526
APRIZESAT 4             
1 35684U 09041D   21274.95139434  .00000215  00000-0  35937-4 0  9993
2 35684  98.3134 274.7599 0048342 100.4523 260.2140 14.79403832656895
NANOSAT 1B              
1 35685U 09041E   21274.70309979  .00000276  00000-0  38914-4 0  9995
2 35685  98.2048 326.0208 0059011  22.2342 338.1411 14.84470918658727
APRIZESAT 3             
1 35686U 09041F   21274.82168201  .00000239  00000-0  31939-4 0  9999
2 35686  98.1285 350.6091 0071600 311.7473  47.7634 14.87558819660152
ASIASAT 5               
1 35696U 09042A   21274.73602334 -.00000310  00000-0  00000-0 0  9993
2 35696   0.0452 267.7151 0001588 278.1798 190.2809  1.00271606 44443
NAVSTAR 64 (USA 206)    
1 35752U 09043A   21274.27827432  .00000042  00000-0  00000-0 0  9995
2 35752  54.8800  95.9801 0058891  56.0686 127.8455  2.00572877 88863
JCSAT-RA (JCSAT-12)     
1 35755U 09044A   21274.89153330 -.00000135  00000-0  00000+0 0  9999
2 35755   0.0294 228.4268 0001683 237.6751  26.3487  1.00137734 44423
OPTUS D3                
1 35756U 09044B   21274.89057389 -.00000150  00000-0  00000+0 0  9994
2 35756   0.0210  65.1082 0002345 134.6312 287.6961  1.00268997 44398
METEOR-M 1              
1 35865U 09049A   21274.93655870  .00000038  00000-0  35832-4 0  9994
2 35865  98.4920 249.2820 0001179 252.7711 107.3338 14.22285292624948
NIMIQ 5                 
1 35873U 09050A   21274.77326552 -.00000259  00000-0  00000-0 0  9990
2 35873   0.0163 126.1042 0003095  74.3076  16.0054  1.00273061 44114
OCEANSAT-2              
1 35931U 09051A   21275.10189823 -.00000064  00000-0 -51442-5 0  9998
2 35931  98.2944   9.6417 0002656  23.1766 336.9566 14.51002596636804
SWISSCUBE               
1 35932U 09051B   21274.83230593  .00000276  00000-0  72985-4 0  9996
2 35932  98.5948 118.1671 0008504 116.8172 243.3896 14.56585624638441
BEESAT-1                
1 35933U 09051C   21275.06874130  .00000231  00000-0  62805-4 0  9995
2 35933  98.5903 120.1871 0006577 126.1520 234.0286 14.56637181638634
ITUPSAT1                
1 35935U 09051E   21274.86159963  .00000208  00000-0  58711-4 0  9999
2 35935  98.6006 120.0899 0008851 130.1891 230.0082 14.55765284638256
AMAZONAS 2              
1 35942U 09054A   21274.99090625 -.00000285  00000-0  00000+0 0  9992
2 35942   0.0326 136.9172 0004927  43.6309 126.1238  1.00271489 43936
COMSATBW-1              
1 35943U 09054B   21274.90440755  .00000021  00000-0  00000-0 0  9995
2 35943   0.0607  92.9839 0002891  96.6852 209.8063  1.00273418 44063
WORLDVIEW-2 (WV-2)      
1 35946U 09055A   21275.20611684 -.00000007  00000-0  12197-4 0  9993
2 35946  98.4771 348.3677 0002146  72.3745 287.7690 14.37674972628807
DMSP 5D-3 F18 (USA 210) 
1 35951U 09057A   21275.09677014  .00000112  00000-0  82311-4 0  9998
2 35951  98.6916 256.3158 0012232 101.3393 258.9155 14.13400117616622
NSS-12                  
1 36032U 09058A   21274.80603009  .00000069  00000-0  00000-0 0  9993
2 36032   0.0259  83.1844 0002813 116.1946 158.5585  1.00271922 43673
THOR 6                  
1 36033U 09058B   21274.78756927 -.00000012  00000-0  00000-0 0  9998
2 36033   0.0143 146.1480 0001716  49.4227  97.8637  1.00272037 43764
SMOS                    
1 36036U 09059A   21275.06138697  .00000077  00000-0  38506-4 0  9998
2 36036  98.4444 101.3090 0001256  82.3670 277.7661 14.39756714626228
PROBA-2                 
1 36037U 09059B   21274.74515322  .00000068  00000-0  27249-4 0  9999
2 36037  98.2241 101.2480 0013234 181.4974 178.6185 14.53165244631685
SJ-11-01                
1 36088U 09061A   21275.07114158  .00000021  00000-0  13509-4 0  9990
2 36088  97.9499 295.9341 0012561  41.6005 318.6155 14.60231390633435
COSMOS 2455             
1 36095U 09063A   21275.00048801 -.00000044  00000-0  22831-4 0  9998
2 36095  67.1461 112.8811 0007343 291.0275  69.0024 13.96773561605207
INTELSAT 14 (IS-14)     
1 36097U 09064A   21274.77876024 -.00000276  00000-0  00000-0 0  9997
2 36097   0.0131 239.1779 0002473 319.8728  47.0520  1.00273034 43379
EUTELSAT 36B            
1 36101U 09065A   21274.77110125  .00000153  00000-0  00000-0 0  9990
2 36101   0.0675   2.1451 0004741 186.4805 135.6143  1.00269428 43475
INTELSAT 15 (IS-15)     
1 36106U 09067A   21274.80188309 -.00000188  00000-0  00000-0 0  9999
2 36106   0.0181 165.5249 0002194  22.6161 196.4434  1.00269293 23989
WGS F3 (USA 211)        
1 36108U 09068A   21274.86586343  .00000016  00000-0  00000-0 0  9997
2 36108   0.0381 102.4348 0003097 189.7818 268.4699  1.00269982 29377
YAOGAN 7                
1 36110U 09069A   21275.10715370  .00000117  00000-0  25076-4 0  9999
2 36110  98.2248 125.9899 0024870 145.6935 214.5891 14.75515970636046
COSMOS 2456 [GLONASS-M] 
1 36111U 09070A   21274.38503208  .00000061  00000-0  00000-0 0  9990
2 36111  64.2919 129.9486 0002593 336.4869 313.3792  2.13099330 91819
COSMOS 2457 [GLONASS-M] 
1 36112U 09070B   21274.31160350  .00000060  00000-0  00000-0 0  9990
2 36112  64.2754 129.8332 0005798 152.9629 205.7961  2.13101485 91818
WISE                    
1 36119U 09071A   21275.09309234  .00002784  00000-0  94732-4 0  9994
2 36119  97.2755 309.6818 0003856 123.2385 236.9226 15.31244086655963
YAOGAN 8                
1 36121U 09072A   21275.08165272 -.00000001  00000-0  12540-3 0  9996
2 36121 100.2359 216.6474 0020524 227.1915 132.7467 13.04965967564527
XIWANG-1 (HOPE-1)       
1 36122U 09072B   21274.85888966 -.00000037  00000-0  14276-4 0  9991
2 36122 100.1454 251.1671 0007033 212.8434 147.2244 13.16362866566789
DIRECTV 12              
1 36131U 09075A   21274.64223685 -.00000105  00000-0  00000-0 0  9994
2 36131   0.0140 190.0040 0000057 112.9529 196.1132  1.00268776 29322
BEIDOU 3                
1 36287U 10001A   21275.21139436 -.00000281  00000-0  00000+0 0  9995
2 36287   1.6607  40.8975 0002617  80.9361 105.8501  1.00275264 42928
RADUGA-1M 2             
1 36358U 10002A   21275.02003712 -.00000186  00000-0  00000+0 0  9995
2 36358   0.0834 258.5195 0002807 320.2860 244.3858  1.00271404 42778
SDO                     
1 36395U 10005A   21274.53957020 -.00000054  00000-0  00000+0 0  9998
2 36395  31.1561 113.4524 0000143 295.5342  54.0526  1.00274617 42784
INTELSAT 16 (IS-16)     
1 36397U 10006A   21274.98785362 -.00000247  00000-0  00000+0 0  9992
2 36397   0.0208 168.4832 0001974  24.1678  97.7123  1.00269183 42477
COSMOS 2459 [GLONASS-M] 
1 36400U 10007A   21274.70748632 -.00000069  00000-0  00000+0 0  9999
2 36400  65.9695  12.1685 0024824 349.3479 349.2370  2.13109155 90168
COSMOS 2461 [GLONASS-M] 
1 36401U 10007B   21274.75264821 -.00000069  00000-0  00000-0 0  9999
2 36401  65.9647  12.1321 0018001   9.7996   1.9931  2.13103586 90183
COSMOS 2460 [GLONASS-M] 
1 36402U 10007C   21275.12625222 -.00000067  00000-0  00000+0 0  9995
2 36402  65.9522  12.0747 0001952 160.1776  84.1233  2.13106511 90181
GOES 15                 
1 36411U 10008A   21274.66718543  .00000050  00000-0  00000-0 0  9995
2 36411   0.3832 275.7293 0000884 236.4447 330.9387  1.00261507 42436
YAOGAN 9A               
1 36413U 10009A   21274.88490816 -.00000060  00000-0  32953-4 0  9990
2 36413  63.3835 117.0870 0387874  10.7303  77.1590 13.45202554568652
YAOGAN 9B               
1 36414U 10009B   21275.08321939 -.00000079  00000-0  12571-4 0  9997
2 36414  63.3844 116.1333 0387879  10.1470 350.7099 13.45214598568858
YAOGAN 9C               
1 36415U 10009C   21275.08257549 -.00000055  00000-0  38112-4 0  9996
2 36415  63.3844 116.7799 0388640  10.4340 350.4440 13.45214648568827
ECHOSTAR 14             
1 36499U 10010A   21274.97939347 -.00000003  00000-0  00000+0 0  9993
2 36499   0.0158 222.2001 0002893 325.4544  56.9773  1.00272182 42292
CRYOSAT 2               
1 36508U 10013A   21274.87332977  .00000136  00000-0  33045-4 0  9998
2 36508  92.0209 221.4803 0007821  59.1767 301.0209 14.51905894608611
SES-1                   
1 36516U 10016A   21274.64330459 -.00000117  00000-0  00000-0 0  9999
2 36516   0.0258 283.9169 0002431 273.7821 303.4939  1.00271894 41802
COSMOS 2463             
1 36519U 10017A   21275.23191219  .00000034  00000-0  21071-4 0  9990
2 36519  82.9581  72.4736 0035250 217.6341 142.2347 13.71460178572394
ASTRA 3B                
1 36581U 10021A   21275.08645947  .00000134  00000-0  00000+0 0  9994
2 36581   0.0681  64.5241 0003694 119.6624 241.4926  1.00268774 41416
COMSATBW-2              
1 36582U 10021B   21274.79036025  .00000086  00000-0  00000-0 0  9990
2 36582   0.0141 123.8651 0002382  85.4074  99.2506  1.00268551 41713
